{
  "type": "FeatureCollection",
  "features": [
    {
      "type": "Feature",
      "properties": {
        "norad_id": 28054,
        "name": "DMSP 5D-3 F16 (USA 172)",
        "group": "weather",
        "lat": -76.66307108453537,
        "lon": 144.35602246450168,
        "alt_km": 848.8463758724756,
        "timestamp": "2025-12-14T20:40:31.409846+00:00",
        "meta_object_name": "DMSP 5D-3 F16 (USA 172)",
        "meta_object_id": "2003-048A",
        "meta_epoch": "2025-12-14T08:25:48.999648",
        "meta_mean_motion": 14.1442487,
        "meta_eccentricity": 0.00064456,
        "meta_inclination": 99.0046,
        "meta_ra_of_asc_node": 5.821,
        "meta_arg_of_pericenter": 315.8273,
        "meta_mean_anomaly": 227.8106,
        "meta_ephemeris_type": 0,
        "meta_classification_type": "U",
        "meta_norad_cat_id": 28054,
        "meta_element_set_no": 999,
        "meta_rev_at_epoch": 14335,
        "meta_bstar": 0.00012434352,
        "meta_mean_motion_dot": 1.93e-06,
        "meta_mean_motion_ddot": 0,
        "tle_line1": "1 28054U 03048A   25348.35126157  .00000193  00000+0  12434-3 0  9995",
        "tle_line2": "2 28054  99.0046   5.8210 0006445 315.8273 227.8106 14.14424870143350"
      },
      "geometry": {
        "type": "Point",
        "coordinates": [
          144.35602246450168,
          -76.66307108453537
        ]
      }
    },
    {
      "type": "Feature",
      "properties": {
        "norad_id": 28912,
        "name": "METEOSAT-9 (MSG-2)",
        "group": "weather",
        "lat": 3.5943336988425956,
        "lon": 79.3489384529643,
        "alt_km": 35798.467420202054,
        "timestamp": "2025-12-14T20:40:31.409895+00:00",
        "meta_object_name": "METEOSAT-9 (MSG-2)",
        "meta_object_id": "2005-049B",
        "meta_epoch": "2025-12-13T20:30:47.672352",
        "meta_mean_motion": 1.00277243,
        "meta_eccentricity": 0.00035181,
        "meta_inclination": 8.9422,
        "meta_ra_of_asc_node": 55.9671,
        "meta_arg_of_pericenter": 190.0125,
        "meta_mean_anomaly": 190.1961,
        "meta_ephemeris_type": 0,
        "meta_classification_type": "U",
        "meta_norad_cat_id": 28912,
        "meta_element_set_no": 999,
        "meta_rev_at_epoch": 514,
        "meta_bstar": 0,
        "meta_mean_motion_dot": 1.35e-06,
        "meta_mean_motion_ddot": 0,
        "tle_line1": "1 28912U 05049B   25347.85471843  .00000135  00000+0  00000+0 0  9998",
        "tle_line2": "2 28912   8.9422  55.9671 0003518 190.0125 190.1961  1.00277243  5140"
      },
      "geometry": {
        "type": "Point",
        "coordinates": [
          79.3489384529643,
          3.5943336988425956
        ]
      }
    },
    {
      "type": "Feature",
      "properties": {
        "norad_id": 29522,
        "name": "DMSP 5D-3 F17 (USA 191)",
        "group": "weather",
        "lat": -24.057517751592826,
        "lon": 170.26876207810005,
        "alt_km": 841.4026775174016,
        "timestamp": "2025-12-14T20:40:31.409915+00:00",
        "meta_object_name": "DMSP 5D-3 F17 (USA 191)",
        "meta_object_id": "2006-050A",
        "meta_epoch": "2025-12-14T06:08:07.176768",
        "meta_mean_motion": 14.14920397,
        "meta_eccentricity": 0.00094698,
        "meta_inclination": 98.7393,
        "meta_ra_of_asc_node": 353.6132,
        "meta_arg_of_pericenter": 220.175,
        "meta_mean_anomaly": 139.8724,
        "meta_ephemeris_type": 0,
        "meta_classification_type": "U",
        "meta_norad_cat_id": 29522,
        "meta_element_set_no": 999,
        "meta_rev_at_epoch": 98626,
        "meta_bstar": 0.0001473418,
        "meta_mean_motion_dot": 2.41e-06,
        "meta_mean_motion_ddot": 0,
        "tle_line1": "1 29522U 06050A   25348.25563862  .00000241  00000+0  14734-3 0  9998",
        "tle_line2": "2 29522  98.7393 353.6132 0009469 220.1750 139.8724 14.14920397986264"
      },
      "geometry": {
        "type": "Point",
        "coordinates": [
          170.26876207810005,
          -24.057517751592826
        ]
      }
    },
    {
      "type": "Feature",
      "properties": {
        "norad_id": 32958,
        "name": "FENGYUN 3A",
        "group": "weather",
        "lat": -46.05066457899252,
        "lon": -62.54932463693414,
        "alt_km": 828.1322225155945,
        "timestamp": "2025-12-14T20:40:31.409929+00:00",
        "meta_object_name": "FENGYUN 3A",
        "meta_object_id": "2008-026A",
        "meta_epoch": "2025-12-14T07:21:41.535072",
        "meta_mean_motion": 14.1951531,
        "meta_eccentricity": 0.00078504,
        "meta_inclination": 98.6699,
        "meta_ra_of_asc_node": 287.8005,
        "meta_arg_of_pericenter": 305.518,
        "meta_mean_anomaly": 54.5263,
        "meta_ephemeris_type": 0,
        "meta_classification_type": "U",
        "meta_norad_cat_id": 32958,
        "meta_element_set_no": 999,
        "meta_rev_at_epoch": 90917,
        "meta_bstar": 0.00010244751,
        "meta_mean_motion_dot": 1.73e-06,
        "meta_mean_motion_ddot": 0,
        "tle_line1": "1 32958U 08026A   25348.30673073  .00000173  00000+0  10245-3 0  9999",
        "tle_line2": "2 32958  98.6699 287.8005 0007850 305.5180  54.5263 14.19515310909179"
      },
      "geometry": {
        "type": "Point",
        "coordinates": [
          -62.54932463693414,
          -46.05066457899252
        ]
      }
    },
    {
      "type": "Feature",
      "properties": {
        "norad_id": 35491,
        "name": "GOES 14",
        "group": "weather",
        "lat": -0.37967917020857245,
        "lon": -77.19865868780239,
        "alt_km": 35832.942800361496,
        "timestamp": "2025-12-14T20:40:31.409943+00:00",
        "meta_object_name": "GOES 14",
        "meta_object_id": "2009-033A",
        "meta_epoch": "2025-12-14T06:02:39.838272",
        "meta_mean_motion": 1.00096325,
        "meta_eccentricity": 6.778e-05,
        "meta_inclination": 1.2067,
        "meta_ra_of_asc_node": 85.3825,
        "meta_arg_of_pericenter": 165.5463,
        "meta_mean_anomaly": 172.1994,
        "meta_ephemeris_type": 0,
        "meta_classification_type": "U",
        "meta_norad_cat_id": 35491,
        "meta_element_set_no": 999,
        "meta_rev_at_epoch": 473,
        "meta_bstar": 0,
        "meta_mean_motion_dot": -9e-08,
        "meta_mean_motion_ddot": 0,
        "tle_line1": "1 35491U 09033A   25348.25184998 -.00000009  00000+0  00000+0 0  9993",
        "tle_line2": "2 35491   1.2067  85.3825 0000677 165.5463 172.1994  1.00096325  4734"
      },
      "geometry": {
        "type": "Point",
        "coordinates": [
          -77.19865868780239,
          -0.37967917020857245
        ]
      }
    },
    {
      "type": "Feature",
      "properties": {
        "norad_id": 35951,
        "name": "DMSP 5D-3 F18 (USA 210)",
        "group": "weather",
        "lat": 68.685547371512,
        "lon": -58.379815136925956,
        "alt_km": 827.9287302769044,
        "timestamp": "2025-12-14T20:40:31.409956+00:00",
        "meta_object_name": "DMSP 5D-3 F18 (USA 210)",
        "meta_object_id": "2009-057A",
        "meta_epoch": "2025-12-14T06:45:54.647136",
        "meta_mean_motion": 14.14770181,
        "meta_eccentricity": 0.0012038,
        "meta_inclination": 98.8836,
        "meta_ra_of_asc_node": 324.6749,
        "meta_arg_of_pericenter": 58.6918,
        "meta_mean_anomaly": 301.5432,
        "meta_ephemeris_type": 0,
        "meta_classification_type": "U",
        "meta_norad_cat_id": 35951,
        "meta_element_set_no": 999,
        "meta_rev_at_epoch": 83344,
        "meta_bstar": 0.00020323124,
        "meta_mean_motion_dot": 3.47e-06,
        "meta_mean_motion_ddot": 0,
        "tle_line1": "1 35951U 09057A   25348.28188249  .00000347  00000+0  20323-3 0  9994",
        "tle_line2": "2 35951  98.8836 324.6749 0012038  58.6918 301.5432 14.14770181833447"
      },
      "geometry": {
        "type": "Point",
        "coordinates": [
          -58.379815136925956,
          68.685547371512
        ]
      }
    },
    {
      "type": "Feature",
      "properties": {
        "norad_id": 36411,
        "name": "EWS-G2 (GOES 15)",
        "group": "weather",
        "lat": 0.15040914203562872,
        "lon": 95.27214757472161,
        "alt_km": 35809.68781877788,
        "timestamp": "2025-12-14T20:40:31.409970+00:00",
        "meta_object_name": "EWS-G2 (GOES 15)",
        "meta_object_id": "2010-008A",
        "meta_epoch": "2025-12-14T04:38:38.457888",
        "meta_mean_motion": 1.00270204,
        "meta_eccentricity": 0.00056464,
        "meta_inclination": 0.8177,
        "meta_ra_of_asc_node": 86.0671,
        "meta_arg_of_pericenter": 175.4906,
        "meta_mean_anomaly": 312.6146,
        "meta_ephemeris_type": 0,
        "meta_classification_type": "U",
        "meta_norad_cat_id": 36411,
        "meta_element_set_no": 999,
        "meta_rev_at_epoch": 5778,
        "meta_bstar": 0,
        "meta_mean_motion_dot": 5.5e-07,
        "meta_mean_motion_ddot": 0,
        "tle_line1": "1 36411U 10008A   25348.19350067  .00000055  00000+0  00000+0 0  9995",
        "tle_line2": "2 36411   0.8177  86.0671 0005646 175.4906 312.6146  1.00270204 57787"
      },
      "geometry": {
        "type": "Point",
        "coordinates": [
          95.27214757472161,
          0.15040914203562872
        ]
      }
    }
  ]
}